0180P         2023 07 12.2513  2.498403  0.353987   94.5940   84.5561   16.8612  20251118  11.0  4.0  180P/NEAT                                                MPEC 2024-F34
0181P         2029 08 30.1327  1.165468  0.699592  336.2853   35.4479   17.4698  20251118  11.5  4.0  181P/Shoemaker-Levy                                      MPC 89012
0183P         2027 09  9.5680  4.229498  0.103064  162.0298    3.3936   18.7183  20251118  12.5  2.0  183P/Korlevic-Juric                                      MPEC 2024-VJ2
0184P         2028 03 23.9552  1.712115  0.549610  186.5547  173.2615    4.5691  20251118  13.5  4.0  184P/Lovas                                               MPEC 2020-W26
0185P         2023 07 12.7050  0.932304  0.699259  181.9240  214.1244   14.0065  20251118  15.0  4.0  185P/Petriew                                             MPEC 2024-F91
0186P         2029 08 20.9642  4.261842  0.123299  268.0546  325.7743   28.6928  20251118   7.5  4.0  186P/Garradd                                             MPEC 2022-X67
0187P         2028 02  5.5738  3.834759  0.156559  131.9505  109.8484   13.6693  20251118   9.0  4.0  187P/LINEAR                                              MPEC 2020-SI8
0188P         2026 04 13.3153  2.546087  0.416551   26.8471  358.9108   10.5257  20251118  11.5  4.0  188P/LINEAR-Mueller                                      MPEC 2025-VD2
0190P         2024 12 24.1336  2.017956  0.523084   50.5418  335.4254    2.1764  20251118  13.0  4.0  190P/Mueller                                             MPEC 2025-UQ3
0191P         2028 02 29.8547  2.239623  0.384942  284.2629   98.1778    8.8396  20251118  13.0  4.0  191P/McNaught                                            MPEC 2024-TD8
0192P         2024 05 24.4449  1.461605  0.773295  313.0235   51.5430   24.5766  20251118  15.0  4.0  192P/Shoemaker-Levy                                      MPC182889
0193P         2028 06  1.4435  2.174995  0.392470    8.0995  335.1829   10.6778  20251118  14.0  4.0  193P/LINEAR-NEAT                                         MPEC 2024-R10
0194P         2024 02  4.3764  1.800303  0.563420  128.6462  349.4991   11.8031  20251118  16.0  4.0  194P/LINEAR                                              MPEC 2024-GJ3
0195P         2025 08  5.9944  4.440605  0.310549  250.6530  243.0898   36.4151  20251118   8.5  4.0  195P/Hill                                                MPEC 2025-VD2
0196P         2022 10 28.9926  2.180119  0.427321   12.1477   24.1256   19.2914  20251118  13.5  4.0  196P/Tichy                                               MPEC 2024-GJ3
0197P         2027 11 21.8851  1.113257  0.617555  189.9903   66.1294   25.2069  20251118  16.5  2.0  197P/LINEAR                                              MPEC 2023-UR6
0198P         2025 10  7.1086  1.994776  0.444946   69.0565  358.4621    1.3399  20251118  12.5  4.0  198P/ODAS                                                MPEC 2024-VJ2
0199P         2023 08  7.1492  2.910998  0.504222  191.7459   92.3426   24.9396  20251118  10.0  4.0  199P/Shoemaker                                           MPEC 2024-Q20
0200P         2030 08  6.8155  3.315259  0.330857  134.3698  234.8148   12.0938  20251118   9.0  4.0  200P/Larsen                                              MPEC 2022-C56
0201P         2027 07 20.2343  1.216182  0.637446   19.8169   41.5163    5.7361  20251118  14.0  4.0  201P/LONEOS                                              MPC 93588
0202P         2024 05 17.3591  3.070430  0.250996  274.5202  177.3003    2.1417  20251118  13.5  4.0  202P/Scotti                                              MPC182889
0203P         2030 04  9.2860  3.191447  0.316368  154.9649  290.2201    2.9762  20251118  14.5  2.0  203P/Korlevic                                            MPC181191
0204P         2022 11 17.4563  1.834067  0.488309  356.7426  108.4721    6.5984  20251118  14.0  4.0  204P/LINEAR-NEAT                                         MPEC 2024-JU4
0205P         2028 09 13.4022  1.533758  0.567143  154.1390  179.6246   15.2996  20251118  13.0  4.0  205P/Giacobini                                           MPEC 2023_O39
0207P         2024 01 31.9219  0.938486  0.758544  273.0523  198.1216   10.1973  20251118  16.0  4.0  207P/NEAT                                                MPEC 2024-NE4
0208P         2024 08 24.8325  2.531200  0.374569  310.9818   36.2895    4.4071  20251118  12.5  4.0  208P/McMillan                                            MPEC 2025-UQ3
0209P         2024 07 14.5018  0.963825  0.674096  152.4751   62.7579   21.2843  20251118  17.0  2.0  209P/LINEAR                                              MPEC 2024-TD8
0210P         2025 11 22.7265  0.524418  0.834075  345.9495   93.7969   10.2873  20251118  13.5  4.0  210P/Christensen                                         MPEC 2025-V36
0211P         2022 10  5.4301  2.325989  0.344569    4.3661  117.1001   18.9262  20251118  12.5  4.0  211P/Hill                                                MPEC 2024-JU4
0212P         2024 04 25.1868  1.613202  0.586768   14.0777   97.9711   22.1494  20251118  17.0  2.0  212P/NEAT                                                MPEC 2024-GJ3
0213P         2023 11 16.5226  1.977460  0.411762    7.1359  310.5666   10.5373  20251118  10.5  4.0  213P/VanNess                                             MPC184418
0213P      b  2023 11 16.3942  1.977766  0.411643    7.1533  310.5635   10.5366  20251118  17.0  4.0  213P-B/Van Ness                                          MPEC 2025-GB9
0213P      c  2023 11 14.0841  1.978304  0.410758  313.0233    4.4580   10.3651  20251118  17.5  4.0  213P-C/Van Ness                                          MPC 76570
0213P      d  2011 06 18.2957  2.130159  0.375028    4.1428  312.6950   10.2589            17.5  4.0  213P-D/Van Ness                                          MPC 76571
0214P         2022 09 26.6300  1.856951  0.486468  190.1194  348.2118   15.1952  20251118  13.0  4.0  214P/LINEAR                                              MPC 92986
0215P         2028 11 23.8898  3.621750  0.164851  262.1765   56.6806   10.5760  20251118  11.0  4.0  215P/NEAT                                                MPC184418
0216P         2024 01  7.0831  2.126749  0.449108  151.7863  359.7702    9.0619  20251118  13.0  4.0  216P/LINEAR                                              MPEC 2024-N80
0217P         2025 05 24.9632  1.226313  0.689277  247.0441  125.3682   12.8667  20251118  12.0  4.0  217P/LINEAR                                              MPEC 2025-VD2
0218P         2026 03  3.9012  1.129507  0.630835   61.4684  174.6569    2.7272  20251118  16.0  4.0  218P/LINEAR                                              MPEC 2022-K19
0219P         2024 02 16.5497  2.353159  0.357274  108.3889  230.6008   11.4646  20251118  11.0  4.0  219P/LINEAR                                              MPC182889
0220P         2026 06 14.1379  1.559194  0.500362  180.5734  150.0862    8.1206  20251118  15.0  4.0  220P/McNaught                                            MPEC 2024-A43
0221P         2028 03 31.9035  1.609245  0.523948   44.9290  223.5817   10.4550  20251118  14.5  4.0  221P/LINEAR                                              MPEC 2022-UY9
0223P         2027 07 24.8534  2.427798  0.416144   37.9907  346.6942   27.0060  20251118  12.0  4.0  223P/Skiff                                               MPEC 2023-A50
0224P         2022 09 30.0990  2.049939  0.405406   16.8295   40.0395   13.2992  20251118  15.5  4.0  224P/LINEAR-NEAT                                         MPEC 2024-L77
0226P         2023 12 26.9840  1.774580  0.528733  341.0388   54.0167   44.0434  20251118  12.5  4.0  226P/Pigott-LINEAR-Kowalski                              MPEC 2024-MB8
0227P         2024 03  8.3981  1.623433  0.527780  105.6076   36.7929    7.5067  20251118  16.5  2.0  227P/Catalina-LINEAR                                     MPC181191
0228P         2028 09  5.1596  3.422072  0.177622  114.8578   30.9507    7.9168  20251118  14.5  2.0  228P/LINEAR                                              MPEC 2025-UQ3
0229P         2025 03  5.9626  2.440646  0.378350  224.2837  157.8618   26.0976  20251118  13.0  4.0  229P/Gibbs                                               MPC186636
0230P         2028 08 20.7427  1.571026  0.545329  313.5913  106.9238   15.4729  20251118  13.0  4.0  230P/LINEAR                                              MPEC 2025-VD2
0231P         2027 08  3.6776  3.090015  0.239940   43.5163  132.7560   12.2745  20251118  14.5  2.0  231P/LINEAR-NEAT                                         MPEC 2023-SQ0
0232P         2028 09 20.6609  2.966554  0.336216   53.3444   55.9994   14.6429  20251118  11.5  4.0  232P/Hill                                                MPC112394
0233P         2026 01  8.1034  1.776738  0.413133   27.0108   74.8983   11.2885  20251118  15.0  4.0  233P/La Sagra                                            MPEC 2021-N06
0234P         2024 10 23.7623  2.820901  0.257423  357.4660  179.5584   11.5331  20251118  12.0  4.0  234P/LINEAR                                              MPC185664
0235P         2025 12 22.6730  1.977943  0.425949  352.1949  200.1696    9.8132  20251118  12.0  4.0  235P/LINEAR                                              MPEC 2025-UQ3
0236P         2025 02  3.9531  1.828129  0.509746  119.4698  245.5576   16.3482  20251118  14.0  4.0  236P/LINEAR                                              MPEC 2024-P23
0237P         2023 05 13.6829  1.999483  0.431815   25.5749  245.3577   14.0008  20251118  14.5  2.0  237P/LINEAR                                              MPC182890
0238P         2028 01 24.2017  2.374690  0.250420  324.2524   51.6510    1.2636  20251118  14.5  4.0  238P/Read                                                MPEC 2024-L77
0239P         2028 06 17.6603  1.644191  0.631598  220.4093  255.9262   11.3056  20251118  17.5  2.0  239P/LINEAR                                              MPEC 2021-F20
